CUBEBUG-2 (LO-74)       
1 39440U 13066AA  26204.29932029  .00002525  00000+0  23554-3 0  9991
2 39440  97.8916 153.4406 0055479 267.8104  91.6762 14.94006519682380
FUNCUBE-1 (AO-73)       
1 39444U 13066AE  26204.17915288  .00007622  00000+0  46639-3 0  9992
2 39444  97.8300 176.3916 0038134  81.8391 278.7160 15.09903824685095
UWE-3                   
1 39446U 13066AG  26204.30668996  .00003059  00000+0  26352-3 0  9990
2 39446  97.8729 160.6343 0047856 196.8794 163.0837 14.97241976682988
UNISAT-6                
1 40012U 14033C   26204.23615612  .00001990  00000+0  21719-3 0  9999
2 40012  97.7919 356.3255 0043662 310.7239  49.0189 14.88391327651522
DUCHIFAT-1              
1 40021U 14033M   26203.61891863  .00168289  00000+0  12291-2 0  9993
2 40021  98.0416 267.9836 0003730 228.0656 132.0288 15.72730714661307
QB50P1                  
1 40025U 14033R   26203.79923947  .00008602  00000+0  41700-3 0  9995
2 40025  98.0975 217.4558 0010565 102.9257 257.3156 15.18749882658434
LILACSAT-2              
1 40908U 15049K   26204.31314877  .00019302  00000+0  31507-3 0  9991
2 40908  97.4631 242.5495 0008624 118.1480 242.0645 15.52584029601356
FOX-1A (AO-85)          
1 40967U 15058D   26204.30272102  .00003792  00000+0  33669-3 0  9996
2 40967  64.7741 166.7325 0133071  42.7370 318.3997 14.91129767118956
CAS-2T & KS-1Q          
1 41847U 16066G   26204.18453523  .00000635  00000+0  97781-4 0  9997
2 41847  98.3807 279.5088 0341806  20.5476 340.9087 14.44780183509999
RADFXSAT (FOX-1B)       
1 43017U 17073E   26204.18723756  .00008194  00000+0  35489-3 0  9999
2 43017  97.4662  70.6688 0148655 203.7073 155.7263 15.13140662470837
DIWATA-2B               
1 43678U 18084H   26204.24617997  .00001630  00000+0  13412-3 0  9991
2 43678  98.1226  42.0352 0012317  59.3963 300.8473 15.00583599421628
ES'HAIL 2               
1 43700U 18090A   26204.26099580  .00000149  00000+0  00000+0 0  9997
2 43700   0.0109  31.3553 0002539 123.6908 265.7146  1.00274083 28033
FOX-1CLIFF (AO-95)      
1 43770U 18099N   26204.11741777  .00012936  00000+0  48430-3 0  9999
2 43770  97.4362 264.2441 0007956 208.6564 151.4239 15.27399464418700
ITASAT                  
1 43786U 18099AE  26204.11473472  .00006774  00000+0  32216-3 0  9998
2 43786  97.4011 254.9146 0011395 219.6719 140.3683 15.19452558418369
JY1SAT (JO-97)          
1 43803U 18099AX  26204.16369215  .00018579  00000+0  55333-3 0  9993
2 43803  97.4110 267.1455 0007337 134.6485 225.5357 15.34719584419148
UWE-4                   
1 43880U 18111E   26203.33377656  .00035708  00000+0  67878-3 0  9999
2 43880  97.5824 133.3991 0007416 169.0004 191.1409 15.48148910416217
TIANYAN 01              
1 44881U 19093C   26204.25824412 -.00000002  00000+0  58281-5 0  9990
2 44881  97.7512 275.6083 0012853 334.5083  25.5498 14.86566659356771
RS-44 & BREEZE-KM R/B   
1 44909U 19096E   26204.28086581  .00000006  00000+0 -26250-4 0  9998
2 44909  82.5245 315.7233 0218358  60.1746 302.0868 12.79748917306965
SALSAT                  
1 46495U 20068K   26204.24596903  .00007467  00000+0  25762-3 0  9994
2 46495  97.8868 209.5206 0010069 165.1541 194.9995 15.30255611320874
XW-3 (CAS-9)            
1 50466U 21131B   26204.29101872  .00000361  00000+0  12515-3 0  9999
2 50466  98.4980 296.4861 0004049   8.8966 351.2294 14.41386711240313
GREENCUBE (IO-117)      
1 53109U 22080E   26203.66940058 -.00000003  00000+0  00000+0 0  9993
2 53109  70.1381 285.9076 0009327 282.2706  77.6909  6.42583354 94343
UMKA 1 (RS40S)          
1 57172U 23091G   26204.27703017  .00005357  00000+0  24298-3 0  9995
2 57172  97.5031 262.8399 0012206   1.9523 358.1758 15.21185313169495
CUBESX-HSE 3 (RS42S)    
1 57178U 23091N   26204.30190761  .00012622  00000+0  40998-3 0  9999
2 57178  97.5072 270.3627 0008936 330.8868  29.1874 15.32032243169955
MONITOR-3 (RS58S)       
1 57180U 23091Q   26204.27720132  .00010340  00000+0  37504-3 0  9993
2 57180  97.5063 268.0004 0010182 339.9092  20.1745 15.28487454169801
MONITOR-4 (RS57S)       
1 57182U 23091S   26204.25423767  .00011017  00000+0  39830-3 0  9993
2 57182  97.5058 267.9504 0010179 340.2993  19.7852 15.28575739169808
MONITOR-2 (RS39S)       
1 57184U 23091U   26204.27861065  .00004258  00000+0  20531-3 0  9991
2 57184  97.5052 262.3307 0010581 356.3994   3.7162 15.19206260169436
SVYATOBOR 1 (RS60S)     
1 57187U 23091X   26204.29958260  .00008335  00000+0  31553-3 0  9996
2 57187  97.5070 268.3260 0007945 334.0335  26.0504 15.27161049169820
VIZARD-METEO (RS38S)    
1 57189U 23091Z   26204.29020818  .00017421  00000+0  48189-3 0  9996
2 57189  97.5072 274.5230 0005171 303.8116  56.2636 15.37067167170235
POLYTECH-UNIVERSE 3 (R*)
1 57191U 23091AB  26204.30085715  .00005072  00000+0  24204-3 0  9999
2 57191  97.5028 261.8569 0015260  10.4195 349.7353 15.19420919169435
UTMN 2 (RS27S)          
1 57203U 23091AP  26204.30009628  .00012467  00000+0  39511-3 0  9995
2 57203  97.5068 272.0385 0006090 316.9139  43.1626 15.32846468170072
