OBJECT_NAME,OBJECT_ID,EPOCH,MEAN_MOTION,ECCENTRICITY,INCLINATION,RA_OF_ASC_NODE,ARG_OF_PERICENTER,MEAN_ANOMALY,EPHEMERIS_TYPE,CLASSIFICATION_TYPE,NORAD_CAT_ID,ELEMENT_SET_NO,REV_AT_EPOCH,BSTAR,MEAN_MOTION_DOT,MEAN_MOTION_DDOT
CUBEBUG-2 (LO-74),2013-066AA,2026-07-23T07:11:01.273056,14.94006519,.00554797,97.8916,153.4406,267.8104,91.6762,0,U,39440,999,68238,.2355357E-3,.2525E-4,0
FUNCUBE-1 (AO-73),2013-066AE,2026-07-23T04:17:58.808832,15.09903824,.00381344,97.8300,176.3916,81.8391,278.7160,0,U,39444,999,68509,.46638869E-3,.7622E-4,0
UWE-3,2013-066AG,2026-07-23T07:21:38.012544,14.97241976,.00478561,97.8729,160.6343,196.8794,163.0837,0,U,39446,999,68298,.26351513E-3,.3059E-4,0
UNISAT-6,2014-033C,2026-07-23T05:40:03.888768,14.88391327,.00436622,97.7919,356.3255,310.7239,49.0189,0,U,40012,999,65152,.21718598E-3,.199E-4,0
DUCHIFAT-1,2014-033M,2026-07-22T14:51:14.569632,15.72730714,.00037308,98.0416,267.9836,228.0656,132.0288,0,U,40021,999,66130,.12291282E-2,.168289E-2,0
QB50P1,2014-033R,2026-07-22T19:10:54.290208,15.18749882,.00105654,98.0975,217.4558,102.9257,257.3156,0,U,40025,999,65843,.41699772E-3,.8602E-4,0
LILACSAT-2,2015-049K,2026-07-23T07:30:56.053728,15.52584029,.00086243,97.4631,242.5495,118.1480,242.0645,0,U,40908,999,60135,.31506512E-3,.19302E-3,0
FOX-1A (AO-85),2015-058D,2026-07-23T07:15:55.096128,14.91129767,.01330713,64.7741,166.7325,42.7370,318.3997,0,U,40967,999,11895,.33668989E-3,.3792E-4,0
CAS-2T & KS-1Q,2016-066G,2026-07-23T04:25:43.843872,14.44780183,.0341806,98.3807,279.5088,20.5476,340.9087,0,U,41847,999,50999,.97780902E-4,.635E-5,0
RADFXSAT (FOX-1B),2017-073E,2026-07-23T04:29:37.325184,15.13140662,.01486556,97.4662,70.6688,203.7073,155.7263,0,U,43017,999,47083,.3548904E-3,.8194E-4,0
DIWATA-2B,2018-084H,2026-07-23T05:54:29.949408,15.00583599,.00123171,98.1226,42.0352,59.3963,300.8473,0,U,43678,999,42162,.13412076E-3,.163E-4,0
ES'HAIL 2,2018-090A,2026-07-23T06:15:50.037120,1.00274083,.00025394,0.0109,31.3553,123.6908,265.7146,0,U,43700,999,2803,0,.149E-5,0
FOX-1CLIFF (AO-95),2018-099N,2026-07-23T02:49:04.895328,15.27399464,.00079561,97.4362,264.2441,208.6564,151.4239,0,U,43770,999,41870,.48430392E-3,.12936E-3,0
ITASAT,2018-099AE,2026-07-23T02:45:13.079808,15.19452558,.00113959,97.4011,254.9146,219.6719,140.3683,0,U,43786,999,41836,.32216442E-3,.6774E-4,0
JY1SAT (JO-97),2018-099AX,2026-07-23T03:55:43.001760,15.34719584,.00073375,97.4110,267.1455,134.6485,225.5357,0,U,43803,999,41914,.55333298E-3,.18579E-3,0
UWE-4,2018-111E,2026-07-22T08:00:38.294784,15.48148910,.00074165,97.5824,133.3991,169.0004,191.1409,0,U,43880,999,41621,.6787843E-3,.35708E-3,0
TIANYAN 01,2019-093C,2026-07-23T06:11:52.291968,14.86566659,.00128539,97.7512,275.6083,334.5083,25.5498,0,U,44881,999,35677,.5828143E-5,-.2E-7,0
RS-44 & BREEZE-KM R/B,2019-096E,2026-07-23T06:44:26.805984,12.79748917,.02183585,82.5245,315.7233,60.1746,302.0868,0,U,44909,999,30696,-.26249986E-4,.6E-7,0
SALSAT,2020-068K,2026-07-23T05:54:11.724192,15.30255611,.00100696,97.8868,209.5206,165.1541,194.9995,0,U,46495,999,32087,.25761612E-3,.7467E-4,0
XW-3 (CAS-9),2021-131B,2026-07-23T06:59:04.017408,14.41386711,.00040494,98.4980,296.4861,8.8966,351.2294,0,U,50466,999,24031,.12515364E-3,.361E-5,0
GREENCUBE (IO-117),2022-080E,2026-07-22T16:03:56.210112,6.42583354,.00093274,70.1381,285.9076,282.2706,77.6909,0,U,53109,999,9434,0,-.3E-7,0
UMKA 1 (RS40S),2023-091G,2026-07-23T06:38:55.406688,15.21185313,.00122069,97.5031,262.8399,1.9523,358.1758,0,U,57172,999,16949,.24298251E-3,.5357E-4,0
CUBESX-HSE 3 (RS42S),2023-091N,2026-07-23T07:14:44.817504,15.32032243,.00089368,97.5072,270.3627,330.8868,29.1874,0,U,57178,999,16995,.40997856E-3,.12622E-3,0
MONITOR-3 (RS58S),2023-091Q,2026-07-23T06:39:10.194048,15.28487454,.00101829,97.5063,268.0004,339.9092,20.1745,0,U,57180,999,16980,.37503959E-3,.1034E-3,0
MONITOR-4 (RS57S),2023-091S,2026-07-23T06:06:06.134688,15.28575739,.00101792,97.5058,267.9504,340.2993,19.7852,0,U,57182,999,16980,.39830026E-3,.11017E-3,0
MONITOR-2 (RS39S),2023-091U,2026-07-23T06:41:11.960160,15.19206260,.00105815,97.5052,262.3307,356.3994,3.7162,0,U,57184,999,16943,.20531214E-3,.4258E-4,0
SVYATOBOR 1 (RS60S),2023-091X,2026-07-23T07:11:23.936640,15.27161049,.00079454,97.5070,268.3260,334.0335,26.0504,0,U,57187,999,16982,.31553101E-3,.8335E-4,0
VIZARD-METEO (RS38S),2023-091Z,2026-07-23T06:57:53.986752,15.37067167,.00051717,97.5072,274.5230,303.8116,56.2636,0,U,57189,999,17023,.48189477E-3,.17421E-3,0
POLYTECH-UNIVERSE 3 (RS46S),2023-091AB,2026-07-23T07:13:14.057760,15.19420919,.001526,97.5028,261.8569,10.4195,349.7353,0,U,57191,999,16943,.24204037E-3,.5072E-4,0
UTMN 2 (RS27S),2023-091AP,2026-07-23T07:12:08.318592,15.32846468,.00060909,97.5068,272.0385,316.9139,43.1626,0,U,57203,999,17007,.39510817E-3,.12467E-3,0
